OBJECT_NAME,OBJECT_ID,EPOCH,MEAN_MOTION,ECCENTRICITY,INCLINATION,RA_OF_ASC_NODE,ARG_OF_PERICENTER,MEAN_ANOMALY,EPHEMERIS_TYPE,CLASSIFICATION_TYPE,NORAD_CAT_ID,ELEMENT_SET_NO,REV_AT_EPOCH,BSTAR,MEAN_MOTION_DOT,MEAN_MOTION_DDOT
SWARM A,2013-067B,2026-06-16T04:29:43.343808,15.50937937,.0003003,87.3326,56.6136,94.9841,265.1763,0,U,39452,999,70609,.15156E-3,.8816E-4,0
SWARM C,2013-067C,2026-06-16T04:29:33.490752,15.50936335,.0002976,87.3326,55.1947,94.4733,265.6867,0,U,39453,999,70605,.15234E-3,.8861E-4,0
BRITE-CA1 (TORONTO),2014-033L,2026-06-16T02:04:38.846208,14.72675356,.007723,97.9738,296.0347,280.6060,78.6456,0,U,40020,999,64205,.98579E-4,.603E-5,0
OCO 2,2014-035A,2026-06-16T03:00:37.849248,14.57110512,.0001501,98.2018,108.4346,85.5318,274.6052,0,U,40059,999,63589,.85597E-4,.34E-5,0
BRITE-PL2 (HEWELIUSZ),2014-049B,2026-06-16T02:25:40.788192,14.94590078,.0015246,97.9097,279.0927,111.7099,248.5746,0,U,40119,999,64128,.13765E-3,.1433E-4,0
MMS 1,2015-011A,2026-06-16T06:00:02.000160,0.28355051,.8321627,72.1797,348.7735,167.4195,202.8117,0,U,40482,999,137,0,-.727E-5,0
MMS 2,2015-011B,2026-06-16T06:00:02.000160,0.28355072,.8322411,72.1799,348.7757,167.4251,202.8004,0,U,40483,999,137,0,-.727E-5,0
MMS 3,2015-011C,2026-06-16T06:00:02.000160,0.28355023,.8321204,72.1791,348.7760,167.4275,202.7844,0,U,40484,999,137,0,-.726E-5,0
MMS 4,2015-011D,2026-06-16T06:00:02.000160,0.28355023,.8321204,72.1791,348.7760,167.4275,202.7844,0,U,40485,999,137,0,-.726E-5,0
ASTROSAT,2015-052A,2026-06-15T13:03:37.935648,14.82504818,.00078138,5.9956,167.1769,7.2508,352.7733,0,U,40930,999,57958,.92748678E-4,.1433E-4,0
DAMPE,2015-078A,2026-06-16T04:30:33.449760,15.30784256,.0013821,97.4550,172.6498,80.3875,279.8927,0,U,41173,999,58439,.48679E-4,.1373E-4,0
PISAT,2016-059B,2026-06-15T23:39:54.339840,14.68981716,.0028288,97.8179,167.4904,206.7001,153.2750,0,U,41784,999,51956,.13186E-3,.73E-5,0
HXMT (HUIYAN),2017-034A,2026-06-16T05:07:22.130112,15.18472901,.003049,43.0125,188.4631,140.8015,219.5049,0,U,42758,999,49751,.12401E-3,.2386E-4,0
FLYING LAPTOP,2017-042G,2026-06-16T04:27:20.883168,15.01138064,.0019528,97.4679,322.7561,124.9089,235.3974,0,U,42831,999,48630,.16857E-3,.211E-4,0
ZHANGHENG 1-01 (CSES-1),2018-015C,2026-06-16T05:13:41.420064,15.20800802,.0017041,97.6867,332.8558,270.0821,89.8461,0,U,43194,999,46449,.27582E-3,.603E-4,0
SALSAT,2020-068K,2026-06-15T23:14:07.134432,15.29785415,.0008114,97.8844,169.9584,313.3675,46.6887,0,U,46495,999,31517,.23912E-3,.682E-4,0
IXPE,2021-121A,2026-06-16T04:00:01.998720,15.10242443,.0006882,0.2323,325.5191,60.8881,89.5969,0,U,49954,999,541,.58823E-3,.10847E-3,0
SMILE,2026-109A,2026-05-24T15:40:35.120928,14.57062785,.00091232,70.0007,229.2745,259.5159,100.4951,0,U,69123,999,80,-.42378883E-3,-.1976E-4,0
