SWARM A                 
1 39452U 13067B   26167.18730722  .00008816  00000+0  15156-3 0  9995
2 39452  87.3326  56.6136 0003003  94.9841 265.1763 15.50937937706093
SWARM C                 
1 39453U 13067C   26167.18719318  .00008861  00000+0  15234-3 0  9991
2 39453  87.3326  55.1947 0002976  94.4733 265.6867 15.50936335706058
BRITE-CA1 (TORONTO)     
1 40020U 14033L   26167.08656072  .00000603  00000+0  98579-4 0  9993
2 40020  97.9738 296.0347 0077230 280.6060  78.6456 14.72675356642052
OCO 2                   
1 40059U 14035A   26167.12543807  .00000340  00000+0  85597-4 0  9997
2 40059  98.2018 108.4346 0001501  85.5318 274.6052 14.57110512635895
BRITE-PL2 (HEWELIUSZ)   
1 40119U 14049B   26167.10116653  .00001433  00000+0  13765-3 0  9993
2 40119  97.9097 279.0927 0015246 111.7099 248.5746 14.94590078641284
MMS 1                   
1 40482U 15011A   26167.25002315 -.00000727  00000+0  00000+0 0  9991
2 40482  72.1797 348.7735 8321627 167.4195 202.8117  0.28355051  1373
MMS 2                   
1 40483U 15011B   26167.25002315 -.00000727  00000+0  00000+0 0  9992
2 40483  72.1799 348.7757 8322411 167.4251 202.8004  0.28355072  1373
MMS 3                   
1 40484U 15011C   26167.25002315 -.00000726  00000+0  00000+0 0  9992
2 40484  72.1791 348.7760 8321204 167.4275 202.7844  0.28355023  1372
MMS 4                   
1 40485U 15011D   26167.25002315 -.00000726  00000+0  00000+0 0  9993
2 40485  72.1791 348.7760 8321204 167.4275 202.7844  0.28355023  1373
ASTROSAT                
1 40930U 15052A   26166.54418907  .00001433  00000+0  92749-4 0  9993
2 40930   5.9956 167.1769 0007813   7.2508 352.7733 14.82504818579585
DAMPE                   
1 41173U 15078A   26167.18788715  .00001373  00000+0  48679-4 0  9995
2 41173  97.4550 172.6498 0013821  80.3875 279.8927 15.30784256584395
PISAT                   
1 41784U 16059B   26166.98604560  .00000730  00000+0  13186-3 0  9995
2 41784  97.8179 167.4904 0028288 206.7001 153.2750 14.68981716519562
HXMT (HUIYAN)           
1 42758U 17034A   26167.21345058  .00002386  00000+0  12401-3 0  9990
2 42758  43.0125 188.4631 0030490 140.8015 219.5049 15.18472901497513
FLYING LAPTOP           
1 42831U 17042G   26167.18565837  .00002110  00000+0  16857-3 0  9990
2 42831  97.4679 322.7561 0019528 124.9089 235.3974 15.01138064486309
ZHANGHENG 1-01 (CSES-1) 
1 43194U 18015C   26167.21784051  .00006030  00000+0  27582-3 0  9991
2 43194  97.6867 332.8558 0017041 270.0821  89.8461 15.20800802464492
SALSAT                  
1 46495U 20068K   26166.96813813  .00006820  00000+0  23912-3 0  9999
2 46495  97.8844 169.9584 0008114 313.3675  46.6887 15.29785415315177
IXPE                    
1 49954U 21121A   26167.16668980  .00010847  00000+0  58823-3 0  9992
2 49954   0.2323 325.5191 0006882  60.8881  89.5969 15.10242443  5416
SMILE                   
1 69123U 26109A   26144.65318427 -.00001976  00000+0 -42379-3 0  9994
2 69123  70.0007 229.2745 0009123 259.5159 100.4951 14.57062785   802
